*******************************************************************************
Ephemeris / WWW_USER Mon Mar 24 09:27:53 2025 Pasadena, USA      / Horizons    
*******************************************************************************
Target body name: ASASSN (C/2017 O1)              {source: JPL#21}
Center body name: Earth (399)                     {source: DE441}
Center-site name: Mauna Kea
*******************************************************************************
Start time      : A.D. 2018-Oct-15 04:08:00.0000 UT      
Stop  time      : A.D. 2018-Oct-15 16:07:00.0000 UT      
Step-size       : 1 minutes
*******************************************************************************
Target pole/equ : undefined
Target radii    : undefined                                                    
Center geodetic : 204.5278, 19.8260847, 4.21024   {E-lon(deg),Lat(deg),Alt(km)}
Center cylindric: 204.5278, 6006.35451, 2151.0229 {E-lon(deg),Dxy(km),Dz(km)}
Center pole/equ : ITRF93                          {East-longitude positive}
Center radii    : 6378.137, 6378.137, 6356.752 km {Equator_a, b, pole_c}       
Target primary  : Sun
Vis. interferer : MOON (R_eq= 1737.400) km        {source: DE441}
Rel. light bend : Sun                             {source: DE441}
Rel. lght bnd GM: 1.3271E+11 km^3/s^2                                          
Small-body perts: Yes                             {source: SB441-N16}
Atmos refraction: NO (AIRLESS)
RA format       : HMS
Time format     : CAL 
Calendar mode   : Mixed Julian/Gregorian
RTS-only print  : NO       
EOP file        : eop.250321.p250617                                           
EOP coverage    : DATA-BASED 1962-JAN-20 TO 2025-MAR-21. PREDICTS-> 2025-JUN-16
Units conversion: 1 au= 149597870.700 km, c= 299792.458 km/s, 1 day= 86400.0 s 
Table cut-offs 1: Elevation (-90.0deg=NO ),Airmass (>38.000=NO), Daylight (YES)
Table cut-offs 2: Solar elongation (  0.0,180.0=NO ),Local Hour Angle( 0.0=NO )
Table cut-offs 3: RA/DEC angular rate (     0.0=NO )                           
*******************************************************************************
Initial IAU76/J2000 heliocentric ecliptic osculating elements (au, days, deg.):
  EPOCH=  2458039.5 ! 2017-Oct-13.0000000 (TDB)    RMSW= n.a.                  
   EC= .9964254882304144   QR= 1.498687032290766   TP= 2458041.2851755521      
   OM= 25.80948799039273   W= 20.90785287564418    IN= 39.84841297991522       
  Equivalent ICRF heliocentric cartesian coordinates (au, au/d):
   X= 1.103880574170232E+00  Y= 7.544591652134763E-01  Z= 6.774428678789283E-01
  VX=-1.240653547490291E-02 VY= 4.322571932715848E-03 VZ= 1.488380440184248E-02
Comet physical (GM= km^3/s^2; RAD= km):                                        
   GM= n.a.                RAD= n.a.                                           
   M1=  12.4     M2=  n.a.     k1=  8.75   k2= n.a.     PHCOF= n.a.            
*******************************************************************************
 Date__(UT)__HR:MN     R.A._________(ICRF)_________DEC
******************************************************
$$SOE
 2018-Oct-15 14:33     12 11 38.986868 +25 34 01.30022
 2018-Oct-15 14:34     12 11 39.022151 +25 34 01.10182
 2018-Oct-15 14:35     12 11 39.057432 +25 34 00.90341
 2018-Oct-15 14:36     12 11 39.092710 +25 34 00.70501
 2018-Oct-15 14:37     12 11 39.127987 +25 34 00.50662
 2018-Oct-15 14:38     12 11 39.163261 +25 34 00.30822
 2018-Oct-15 14:39     12 11 39.198532 +25 34 00.10983
 2018-Oct-15 14:40     12 11 39.233801 +25 33 59.91145
 2018-Oct-15 14:41     12 11 39.269068 +25 33 59.71307
 2018-Oct-15 14:42     12 11 39.304332 +25 33 59.51469
 2018-Oct-15 14:43     12 11 39.339594 +25 33 59.31631
 2018-Oct-15 14:44     12 11 39.374854 +25 33 59.11794
 2018-Oct-15 14:45     12 11 39.410111 +25 33 58.91957
 2018-Oct-15 14:46     12 11 39.445366 +25 33 58.72121
 2018-Oct-15 14:47     12 11 39.480619 +25 33 58.52285
 2018-Oct-15 14:48     12 11 39.515869 +25 33 58.32449
 2018-Oct-15 14:49     12 11 39.551117 +25 33 58.12613
 2018-Oct-15 14:50     12 11 39.586363 +25 33 57.92778
 2018-Oct-15 14:51     12 11 39.621606 +25 33 57.72943
 2018-Oct-15 14:52     12 11 39.656846 +25 33 57.53108
 2018-Oct-15 14:53     12 11 39.692085 +25 33 57.33274
 2018-Oct-15 14:54     12 11 39.727321 +25 33 57.13440
 2018-Oct-15 14:55     12 11 39.762554 +25 33 56.93606
 2018-Oct-15 14:56     12 11 39.797786 +25 33 56.73773
 2018-Oct-15 14:57     12 11 39.833015 +25 33 56.53940
 2018-Oct-15 14:58     12 11 39.868241 +25 33 56.34107
 2018-Oct-15 14:59     12 11 39.903465 +25 33 56.14274
 2018-Oct-15 15:00     12 11 39.938687 +25 33 55.94441
 2018-Oct-15 15:01     12 11 39.973906 +25 33 55.74609
 2018-Oct-15 15:02     12 11 40.009124 +25 33 55.54777
 2018-Oct-15 15:03     12 11 40.044338 +25 33 55.34945
 2018-Oct-15 15:04 A   12 11 40.079551 +25 33 55.15114
 2018-Oct-15 15:05 A   12 11 40.114760 +25 33 54.95282
 2018-Oct-15 15:06 A   12 11 40.149968 +25 33 54.75451
 2018-Oct-15 15:07 A   12 11 40.185173 +25 33 54.55621
 2018-Oct-15 15:08 A   12 11 40.220376 +25 33 54.35790
 2018-Oct-15 15:09 A   12 11 40.255577 +25 33 54.15959
 2018-Oct-15 15:10 A   12 11 40.290775 +25 33 53.96129
 2018-Oct-15 15:11 A   12 11 40.325970 +25 33 53.76299
 2018-Oct-15 15:12 A   12 11 40.361164 +25 33 53.56469
 2018-Oct-15 15:13 A   12 11 40.396355 +25 33 53.36639
 2018-Oct-15 15:14 A   12 11 40.431543 +25 33 53.16810
 2018-Oct-15 15:15 A   12 11 40.466730 +25 33 52.96980
 2018-Oct-15 15:16 A   12 11 40.501914 +25 33 52.77151
 2018-Oct-15 15:17 A   12 11 40.537095 +25 33 52.57322
 2018-Oct-15 15:18 A   12 11 40.572274 +25 33 52.37493
 2018-Oct-15 15:19 A   12 11 40.607451 +25 33 52.17664
 2018-Oct-15 15:20 A   12 11 40.642626 +25 33 51.97836
 2018-Oct-15 15:21 A   12 11 40.677798 +25 33 51.78007
 2018-Oct-15 15:22 A   12 11 40.712967 +25 33 51.58179
 2018-Oct-15 15:23 A   12 11 40.748135 +25 33 51.38351
 2018-Oct-15 15:24 A   12 11 40.783300 +25 33 51.18522
 2018-Oct-15 15:25 A   12 11 40.818462 +25 33 50.98694
 2018-Oct-15 15:26 A   12 11 40.853623 +25 33 50.78866
 2018-Oct-15 15:27 A   12 11 40.888781 +25 33 50.59039
 2018-Oct-15 15:28 A   12 11 40.923936 +25 33 50.39211
 2018-Oct-15 15:29 N   12 11 40.959090 +25 33 50.19383
 2018-Oct-15 15:30 N   12 11 40.994241 +25 33 49.99556
 2018-Oct-15 15:31 N   12 11 41.029389 +25 33 49.79728
 2018-Oct-15 15:32 N   12 11 41.064535 +25 33 49.59901
 2018-Oct-15 15:33 N   12 11 41.099679 +25 33 49.40073
 2018-Oct-15 15:34 N   12 11 41.134821 +25 33 49.20246
 2018-Oct-15 15:35 N   12 11 41.169960 +25 33 49.00419
 2018-Oct-15 15:36 N   12 11 41.205097 +25 33 48.80592
 2018-Oct-15 15:37 N   12 11 41.240231 +25 33 48.60765
 2018-Oct-15 15:38 N   12 11 41.275363 +25 33 48.40937
 2018-Oct-15 15:39 N   12 11 41.310493 +25 33 48.21110
 2018-Oct-15 15:40 N   12 11 41.345621 +25 33 48.01283
 2018-Oct-15 15:41 N   12 11 41.380746 +25 33 47.81456
 2018-Oct-15 15:42 N   12 11 41.415869 +25 33 47.61629
 2018-Oct-15 15:43 N   12 11 41.450989 +25 33 47.41802
 2018-Oct-15 15:44 N   12 11 41.486107 +25 33 47.21975
 2018-Oct-15 15:45 N   12 11 41.521223 +25 33 47.02148
 2018-Oct-15 15:46 N   12 11 41.556337 +25 33 46.82321
 2018-Oct-15 15:47 N   12 11 41.591448 +25 33 46.62494
 2018-Oct-15 15:48 N   12 11 41.626557 +25 33 46.42667
 2018-Oct-15 15:49 N   12 11 41.661663 +25 33 46.22840
 2018-Oct-15 15:50 N   12 11 41.696768 +25 33 46.03013
 2018-Oct-15 15:51 N   12 11 41.731870 +25 33 45.83186
 2018-Oct-15 15:52 N   12 11 41.766969 +25 33 45.63359
 2018-Oct-15 15:53 N   12 11 41.802066 +25 33 45.43532
 2018-Oct-15 15:54 N   12 11 41.837161 +25 33 45.23705
 2018-Oct-15 15:55 C   12 11 41.872254 +25 33 45.03878
 2018-Oct-15 15:56 C   12 11 41.907345 +25 33 44.84050
 2018-Oct-15 15:57 C   12 11 41.942433 +25 33 44.64223
 2018-Oct-15 15:58 C   12 11 41.977518 +25 33 44.44395
 2018-Oct-15 15:59 C   12 11 42.012602 +25 33 44.24568
 2018-Oct-15 16:00 C   12 11 42.047683 +25 33 44.04740
 2018-Oct-15 16:01 C   12 11 42.082762 +25 33 43.84912
 2018-Oct-15 16:02 C   12 11 42.117839 +25 33 43.65085
 2018-Oct-15 16:03 C   12 11 42.152913 +25 33 43.45257
 2018-Oct-15 16:04 C   12 11 42.187985 +25 33 43.25429
 2018-Oct-15 16:05 C   12 11 42.223055 +25 33 43.05601
 2018-Oct-15 16:06 C   12 11 42.258122 +25 33 42.85772
 2018-Oct-15 16:07 C   12 11 42.293188 +25 33 42.65944
